[{"OBJECT_NAME":"STARLINK-6159","OBJECT_ID":"2023-061H","EPOCH":"2026-03-09T22:00:01.999584","MEAN_MOTION":15.12353303,"ECCENTRICITY":0.00022402,"INCLINATION":42.9999,"RA_OF_ASC_NODE":195.9266,"ARG_OF_PERICENTER":268.9214,"MEAN_ANOMALY":47.6855,"EPHEMERIS_TYPE":0,"CLASSIFICATION_TYPE":"U","NORAD_CAT_ID":56381,"ELEMENT_SET_NO":999,"REV_AT_EPOCH":572,"BSTAR":0.0040805749,"MEAN_MOTION_DOT":0.00072519,"MEAN_MOTION_DDOT":0},{"OBJECT_NAME":"CZ-4C DEB","OBJECT_ID":"2010-038C","EPOCH":"2026-03-09T11:39:53.947584","MEAN_MOTION":15.01546644,"ECCENTRICITY":0.00721012,"INCLINATION":97.7316,"RA_OF_ASC_NODE":260.9237,"ARG_OF_PERICENTER":198.3771,"MEAN_ANOMALY":193.4151,"EPHEMERIS_TYPE":0,"CLASSIFICATION_TYPE":"U","NORAD_CAT_ID":37567,"ELEMENT_SET_NO":999,"REV_AT_EPOCH":82756,"BSTAR":0.0017211285,"MEAN_MOTION_DOT":0.00023562,"MEAN_MOTION_DDOT":0}]
